[{"OBJECT_NAME":"STARLINK-35383","OBJECT_ID":"2025-218C","EPOCH":"2026-03-09T15:04:32.193696","MEAN_MOTION":15.05658147,"ECCENTRICITY":0.0002724,"INCLINATION":97.6021,"RA_OF_ASC_NODE":292.9417,"ARG_OF_PERICENTER":84.2925,"MEAN_ANOMALY":275.8613,"EPHEMERIS_TYPE":0,"CLASSIFICATION_TYPE":"U","NORAD_CAT_ID":65793,"ELEMENT_SET_NO":999,"REV_AT_EPOCH":2496,"BSTAR":0.00050948,"MEAN_MOTION_DOT":7.3e-5,"MEAN_MOTION_DDOT":0},{"OBJECT_NAME":"SL-16 DEB","OBJECT_ID":"1992-093CH","EPOCH":"2026-03-09T20:51:36.974880","MEAN_MOTION":14.88689084,"ECCENTRICITY":0.0074931,"INCLINATION":70.8861,"RA_OF_ASC_NODE":315.1013,"ARG_OF_PERICENTER":150.6914,"MEAN_ANOMALY":290.361,"EPHEMERIS_TYPE":0,"CLASSIFICATION_TYPE":"U","NORAD_CAT_ID":22392,"ELEMENT_SET_NO":999,"REV_AT_EPOCH":74900,"BSTAR":0.00054238016,"MEAN_MOTION_DOT":5.266e-5,"MEAN_MOTION_DDOT":0}]
